NORAD_CAT_ID,OBJECT_NAME,OBJECT_TYPE,EPOCH,MEAN_MOTION,ECCENTRICITY,INCLINATION,RA_OF_ASC_NODE,ARG_OF_PERICENTER,MEAN_ANOMALY,BSTAR,MEAN_MOTION_DOT,MEAN_MOTION_DDOT,TLE_LINE0,TLE_LINE1,TLE_LINE2,SEMIMAJOR_AXIS,PERIOD,APOGEE,PERIGEE,DECAYED
52370.0,STARLINK-3827,PAYLOAD,2024-05-10 11:24:59,15.08839378,0.0001421,53.2176,308.8622,77.1399,282.9752,4.7521e-05,4.68e-06,0.0,0 STARLINK-3827,1 52370U 22045AR  24131.47568912  .00000468  00000-0  47521-4 0  9994,2 52370  53.2176 308.8622 0001421  77.1399 282.9752 15.08839378115044,6917.882,95.438,540.73,538.764,0.0
52370.0,STARLINK-3827,PAYLOAD,2024-05-10 20:57:17,15.08850485,8.85e-05,53.2174,307.0755,75.4047,284.7043,9.6748e-05,1.253e-05,0.0,0 STARLINK-3827,1 52370U 22045AR  24131.87312015  .00001253  00000-0  96748-4 0  9997,2 52370  53.2174 307.0755 0000885  75.4047 284.7043 15.08850485115106,6917.848,95.437,540.326,539.101,0.0
52370.0,STARLINK-3827,PAYLOAD,2024-05-11 11:15:43,15.08886284,0.0001291,53.219,304.4014,59.3418,300.7701,0.00043425,6.639e-05,0.0,0 STARLINK-3827,1 52370U 22045AR  24132.46925105  .00006639  00000-0  43425-3 0  9999,2 52370  53.2190 304.4014 0001291  59.3418 300.7701 15.08886284115193,6917.739,95.435,540.497,538.711,0.0
52370.0,STARLINK-3827,PAYLOAD,2024-05-11 20:48:04,15.08834445,0.0001523,53.217,302.6155,79.4178,280.6986,-0.00028761,-4.862e-05,0.0,0 STARLINK-3827,1 52370U 22045AR  24132.86671605 -.00004862  00000-0 -28761-3 0  9990,2 52370  53.2170 302.6155 0001523  79.4178 280.6986 15.08834445115251,6917.897,95.438,540.816,538.709,0.0
52370.0,STARLINK-3827,PAYLOAD,2024-05-12 04:45:04,15.08728018,0.0002272,53.2178,301.1289,76.3674,283.7571,-0.0020029,-0.00031927,0.0,0 STARLINK-3827,1 52370U 22045AR  24133.19797386 -.00031927  00000-0 -20029-2 0  9992,2 52370  53.2178 301.1289 0002272  76.3674 283.7571 15.08728018115308,6918.223,95.445,541.66,538.516,0.0
52370.0,STARLINK-3827,PAYLOAD,2024-05-12 20:38:56,15.08789107,0.0001168,53.2171,298.1536,102.9311,257.1812,-0.00025431,-4.327e-05,0.0,0 STARLINK-3827,1 52370U 22045AR  24133.86037725 -.00004327  00000-0 -25431-3 0  9997,2 52370  53.2171 298.1536 0001168 102.9311 257.1812 15.08789107115408,6918.036,95.441,540.709,539.093,0.0
52370.0,STARLINK-3827,PAYLOAD,2024-05-13 04:35:52,15.08815436,0.0001122,53.2171,296.6676,92.5601,267.552,0.00038209,5.794e-05,0.0,0 STARLINK-3827,1 52370U 22045AR  24134.19157659  .00005794  00000-0  38209-3 0  9997,2 52370  53.2171 296.6676 0001122  92.5601 267.5520 15.08815436115453,6917.955,95.439,540.597,539.044,0.0
52370.0,STARLINK-3827,PAYLOAD,2024-05-13 10:57:24,15.08819519,7.02e-05,53.2178,295.4759,139.2446,220.8599,0.00064835,0.0001004,0.0,0 STARLINK-3827,1 52370U 22045AR  24134.45653774  .00010040  00000-0  64835-3 0  9999,2 52370  53.2178 295.4759 0000702 139.2446 220.8599 15.08819519115496,6917.943,95.439,540.294,539.322,0.0
52370.0,STARLINK-3827,PAYLOAD,2024-05-13 17:18:57,15.08847035,0.0001805,53.2177,294.2871,97.0749,263.0448,0.0011664,0.00018328,0.0,0 STARLINK-3827,1 52370U 22045AR  24134.72149391  .00018328  00000-0  11664-2 0  9992,2 52370  53.2177 294.2871 0001805  97.0749 263.0448 15.08847035115530,6917.859,95.437,540.973,538.475,0.0
52370.0,STARLINK-3827,PAYLOAD,2024-05-14 17:09:41,15.08876831,0.0001791,53.2179,289.8289,84.0975,276.0221,0.0011217,0.00017627,0.0,0 STARLINK-3827,1 52370U 22045AR  24135.71506589  .00017627  00000-0  11217-2 0  9993,2 52370  53.2179 289.8289 0001791  84.0975 276.0221 15.08876831115681,6917.768,95.435,540.872,538.394,0.0
52370.0,STARLINK-3827,PAYLOAD,2024-05-15 10:38:55,15.08863548,0.0001099,53.2134,286.558,84.2751,275.8366,-0.00026057,-4.435e-05,0.0,0 STARLINK-3827,1 52370U 22045AR  24136.44369442 -.00004435  00000-0 -26057-3 0  9993,2 52370  53.2134 286.5580 0001099  84.2751 275.8366 15.08863548115795,6917.808,95.436,540.434,538.913,0.0
52370.0,STARLINK-3827,PAYLOAD,2024-05-15 13:49:40,15.0887643,0.000145,53.217,285.9615,104.366,255.7493,-0.00011659,-2.145e-05,0.0,0 STARLINK-3827,1 52370U 22045AR  24136.57616431 -.00002145  00000-0 -11659-3 0  9998,2 52370  53.2170 285.9615 0001450 104.3660 255.7493 15.08876430115816,6917.769,95.435,540.637,538.631,0.0
52370.0,STARLINK-3827,PAYLOAD,2024-05-15 17:00:26,15.08882071,8.42e-05,53.2172,285.3664,90.8449,269.264,-1.8491e-05,-5.82e-06,0.0,0 STARLINK-3827,1 52370U 22045AR  24136.70863798 -.00000582  00000-0 -18491-4 0  9998,2 52370  53.2172 285.3664 0000842  90.8449 269.2640 15.08882071115838,6917.752,95.435,540.199,539.034,0.0
52370.0,STARLINK-3827,PAYLOAD,2024-05-16 02:32:44,15.08870533,8.64e-05,53.2167,283.5853,12.321,347.7803,-0.00026678,-4.535e-05,0.0,0 STARLINK-3827,1 52370U 22045AR  24137.10607537 -.00004535  00000-0 -26678-3 0  9997,2 52370  53.2167 283.5853 0000864  12.3210 347.7803 15.08870533115890,6917.787,95.436,540.25,539.054,0.0
52370.0,STARLINK-3827,PAYLOAD,2024-05-16 18:26:37,15.08838486,0.0001831,53.2177,280.6103,72.9751,287.1442,-0.00015898,-2.817e-05,0.0,0 STARLINK-3827,1 52370U 22045AR  24137.76848641 -.00002817  00000-0 -15898-3 0  9995,2 52370  53.2177 280.6103 0001831  72.9751 287.1442 15.08838486115992,6917.885,95.438,541.017,538.483,0.0
52370.0,STARLINK-3827,PAYLOAD,2024-05-17 02:23:33,15.08824781,0.0001992,53.2171,279.1235,80.0712,280.0505,-0.00031046,-5.224e-05,0.0,0 STARLINK-3827,1 52370U 22045AR  24138.09969507 -.00005224  00000-0 -31046-3 0  9995,2 52370  53.2171 279.1235 0001992  80.0712 280.0505 15.08824781116042,6917.927,95.439,541.17,538.414,0.0
52370.0,STARLINK-3827,PAYLOAD,2024-05-17 18:17:25,15.08820872,0.0001645,53.2172,276.1498,79.924,280.1937,-0.00021691,-3.737e-05,0.0,0 STARLINK-3827,1 52370U 22045AR  24138.76210449 -.00003737  00000-0 -21691-3 0  9995,2 52370  53.2172 276.1498 0001645  79.9240 280.1937 15.08820872116147,6917.939,95.439,540.942,538.666,0.0
52370.0,STARLINK-3827,PAYLOAD,2024-05-18 02:14:21,15.08836676,0.0001094,53.2179,274.6615,80.7513,279.3603,-1.8455e-07,-2.91e-06,0.0,0 STARLINK-3827,1 52370U 22045AR  24139.09329893 -.00000291  00000-0 -18455-6 0  9995,2 52370  53.2179 274.6615 0001094  80.7513 279.3603 15.08836676116193,6917.891,95.438,540.512,538.999,0.0
52370.0,STARLINK-3827,PAYLOAD,2024-05-18 13:22:02,15.08847638,9.59e-05,53.2136,272.5831,73.5702,286.5395,0.0006692,0.00010381,0.0,0 STARLINK-3827,1 52370U 22045AR  24139.55697495  .00010381  00000-0  66920-3 0  9998,2 52370  53.2136 272.5831 0000959  73.5702 286.5395 15.08847638116268,6917.857,95.437,540.385,539.059,0.0
52370.0,STARLINK-3827,PAYLOAD,2024-05-18 14:57:25,15.08863512,0.0001238,53.2164,272.2829,77.7009,282.4121,0.00065561,0.00010168,0.0,0 STARLINK-3827,1 52370U 22045AR  24139.62320604  .00010168  00000-0  65561-3 0  9994,2 52370  53.2164 272.2829 0001238  77.7009 282.4121 15.08863512116272,6917.809,95.436,540.53,538.817,0.0
52370.0,STARLINK-3827,PAYLOAD,2024-05-18 16:32:47,15.08867321,0.0001448,53.2158,271.9851,79.2879,280.8276,0.00083163,0.00012982,0.0,0 STARLINK-3827,1 52370U 22045AR  24139.68944382  .00012982  00000-0  83163-3 0  9999,2 52370  53.2158 271.9851 0001448  79.2879 280.8276 15.08867321116287,6917.797,95.436,540.664,538.66,0.0
52370.0,STARLINK-3827,PAYLOAD,2024-05-19 02:05:07,15.08843072,0.0001491,53.2164,270.2024,88.5467,271.5696,0.00036784,5.572e-05,0.0,0 STARLINK-3827,1 52370U 22045AR  24140.08689581  .00005572  00000-0  36784-3 0  9996,2 52370  53.2164 270.2024 0001491  88.5467 271.5696 15.08843072116349,6917.871,95.437,540.767,538.705,0.0
52370.0,STARLINK-3827,PAYLOAD,2024-05-19 13:12:50,15.08822923,0.0001586,53.2164,268.1201,95.2151,264.9022,-5.2321e-06,-3.71e-06,0.0,0 STARLINK-3827,1 52370U 22045AR  24140.55058938 -.00000371  00000-0 -52321-5 0  9995,2 52370  53.2164 268.1201 0001586  95.2151 264.9022 15.08822923116411,6917.933,95.439,540.895,538.7,0.0
52370.0,STARLINK-3827,PAYLOAD,2024-05-19 17:58:59,15.08843071,0.0001015,53.2172,267.2279,114.9861,245.1237,9.4701e-05,1.22e-05,0.0,0 STARLINK-3827,1 52370U 22045AR  24140.74929852  .00001220  00000-0  94701-4 0  9997,2 52370  53.2172 267.2279 0001015 114.9861 245.1237 15.08843071116448,6917.871,95.437,540.438,539.034,0.0
52370.0,STARLINK-3827,PAYLOAD,2024-05-20 14:38:59,15.0886615,0.0001238,53.217,263.3602,110.4299,249.6827,7.0525e-05,8.35e-06,0.0,0 STARLINK-3827,1 52370U 22045AR  24141.61040649  .00000835  00000-0  70525-4 0  9991,2 52370  53.2170 263.3602 0001238 110.4299 249.6827 15.08866150116577,6917.8,95.436,540.522,538.809,0.0
52370.0,STARLINK-3827,PAYLOAD,2024-05-21 12:54:24,15.08837847,0.0001359,53.2175,259.2005,110.9047,249.2091,0.00025708,3.806e-05,0.0,0 STARLINK-3827,1 52370U 22045AR  24142.53778162  .00003806  00000-0  25708-3 0  9994,2 52370  53.2175 259.2005 0001359 110.9047 249.2091 15.08837847116719,6917.887,95.438,540.692,538.812,0.0
52370.0,STARLINK-3827,PAYLOAD,2024-05-21 14:29:47,15.08841326,0.0001302,53.2179,258.9064,111.4848,248.6283,0.00012968,1.777e-05,0.0,0 STARLINK-3827,1 52370U 22045AR  24142.60401983  .00001777  00000-0  12968-3 0  9995,2 52370  53.2179 258.9064 0001302 111.4848 248.6283 15.08841326116721,6917.876,95.437,540.642,538.841,0.0
52370.0,STARLINK-3827,PAYLOAD,2024-05-22 11:09:47,15.08848402,0.0001179,53.2178,255.039,96.5548,263.5579,4.1168e-05,3.68e-06,0.0,0 STARLINK-3827,1 52370U 22045AR  24143.46513505  .00000368  00000-0  41168-4 0  9994,2 52370  53.2178 255.0390 0001179  96.5548 263.5579 15.08848402116852,6917.855,95.437,540.535,538.904,0.0
52370.0,STARLINK-3827,PAYLOAD,2024-05-23 12:35:58,15.08835509,0.0001154,53.2172,250.2812,68.1969,291.9146,4.0606e-05,3.58e-06,0.0,0 STARLINK-3827,1 52370U 22045AR  24144.52498562  .00000358  00000-0  40606-4 0  9992,2 52370  53.2172 250.2812 0001154  68.1969 291.9146 15.08835509117015,6917.894,95.438,540.557,538.961,0.0
52370.0,STARLINK-3827,PAYLOAD,2024-05-24 14:02:08,15.08841963,0.0001224,53.2166,245.5229,70.2985,289.8139,0.00016879,2.4e-05,0.0,0 STARLINK-3827,1 52370U 22045AR  24145.58482057  .00002400  00000-0  16879-3 0  9995,2 52370  53.2166 245.5229 0001224  70.2985 289.8139 15.08841963117173,6917.874,95.437,540.586,538.893,0.0
